{
  "norad_id": 55655,
  "name": "STARLINK-5267",
  "history": [
    {
      "epoch": "2026-03-28T19:05:20.932224Z",
      "apogee_km": 574.5598227354958,
      "perigee_km": 569.5452609810445,
      "latitude_deg": 2.8058988516339027e-05,
      "longitude_deg": 3.8488932272806453,
      "height_km": 574.5280795581506,
      "semi_major_axis_km": 6950.18954185827,
      "eccentricity": 0.00036075,
      "inclination_deg": 69.9987,
      "raan_deg": 116.3968,
      "arg_perigee_deg": 268.9123,
      "mean_anomaly_deg": 91.1623,
      "mean_motion_rev_day": 14.98331083
    },
    {
      "epoch": "2026-03-29T04:42:09.194400Z",
      "apogee_km": 574.5602929976103,
      "perigee_km": 569.5353093863496,
      "latitude_deg": 1.027409720831028e-05,
      "longitude_deg": -141.75711415324434,
      "height_km": 574.5359894432839,
      "semi_major_axis_km": 6950.18480119198,
      "eccentricity": 0.0003615,
      "inclination_deg": 69.9986,
      "raan_deg": 115.3867,
      "arg_perigee_deg": 268.6261,
      "mean_anomaly_deg": 91.4484,
      "mean_motion_rev_day": 14.98332616
    },
    {
      "epoch": "2026-03-30T04:44:09.928032Z",
      "apogee_km": 574.6257196058796,
      "perigee_km": 569.4770200615076,
      "latitude_deg": -6.33949473466637e-05,
      "longitude_deg": -145.77251928301843,
      "height_km": 574.5352851071918,
      "semi_major_axis_km": 6950.188369833693,
      "eccentricity": 0.0003704,
      "inclination_deg": 69.9984,
      "raan_deg": 112.8614,
      "arg_perigee_deg": 268.7558,
      "mean_anomaly_deg": 91.3176,
      "mean_motion_rev_day": 14.98331462
    },
    {
      "epoch": "2026-03-30T06:20:17.986848Z",
      "apogee_km": 574.6270197239955,
      "perigee_km": 569.4752622663636,
      "latitude_deg": 5.4654605649888804e-05,
      "longitude_deg": -170.04015646977243,
      "height_km": 574.5359763503134,
      "semi_major_axis_km": 6950.188140995179,
      "eccentricity": 0.00037062,
      "inclination_deg": 69.9984,
      "raan_deg": 112.6931,
      "arg_perigee_deg": 268.7359,
      "mean_anomaly_deg": 91.3376,
      "mean_motion_rev_day": 14.98331536
    },
    {
      "epoch": "2026-03-30T11:08:42.062208Z",
      "apogee_km": 574.620145226284,
      "perigee_km": 569.4717277142645,
      "latitude_deg": 2.9250522652115214e-05,
      "longitude_deg": 117.1572169197103,
      "height_km": 574.5286234875971,
      "semi_major_axis_km": 6950.182936470274,
      "eccentricity": 0.00037038,
      "inclination_deg": 69.9985,
      "raan_deg": 112.1882,
      "arg_perigee_deg": 268.7831,
      "mean_anomaly_deg": 91.2904,
      "mean_motion_rev_day": 14.98333219
    },
    {
      "epoch": "2026-03-31T11:10:43.186368Z",
      "apogee_km": 574.599924499862,
      "perigee_km": 569.5082145223369,
      "latitude_deg": -3.860987076707005e-05,
      "longitude_deg": 113.14078287434117,
      "height_km": 574.5464960825852,
      "semi_major_axis_km": 6950.191069511099,
      "eccentricity": 0.0003663,
      "inclination_deg": 69.9989,
      "raan_deg": 109.6635,
      "arg_perigee_deg": 268.5502,
      "mean_anomaly_deg": 91.5237,
      "mean_motion_rev_day": 14.98330589
    },
    {
      "epoch": "2026-04-01T09:36:36.035712Z",
      "apogee_km": 574.6002307669823,
      "perigee_km": 569.5043519785486,
      "latitude_deg": -1.5320082197403949e-06,
      "longitude_deg": 133.3925692516661,
      "height_km": 574.5328476072848,
      "semi_major_axis_km": 6950.189291372765,
      "eccentricity": 0.0003666,
      "inclination_deg": 69.9988,
      "raan_deg": 107.3067,
      "arg_perigee_deg": 268.8182,
      "mean_anomaly_deg": 91.2557,
      "mean_motion_rev_day": 14.98331164
    },
    {
      "epoch": "2026-04-02T17:39:17.222400Z",
      "apogee_km": 574.5313167684644,
      "perigee_km": 569.5872251491555,
      "latitude_deg": -5.1332094840200135e-05,
      "longitude_deg": 8.037909168853318,
      "height_km": 574.5417983567155,
      "semi_major_axis_km": 6950.19627095881,
      "eccentricity": 0.00035568,
      "inclination_deg": 69.9993,
      "raan_deg": 103.9397,
      "arg_perigee_deg": 268.7348,
      "mean_anomaly_deg": 91.3403,
      "mean_motion_rev_day": 14.98328907
    },
    {
      "epoch": "2026-04-03T09:40:37.537536Z",
      "apogee_km": 574.605839408443,
      "perigee_km": 569.4786921640725,
      "latitude_deg": 3.895930631570883e-05,
      "longitude_deg": 125.36198272846202,
      "height_km": 574.5551648353743,
      "semi_major_axis_km": 6950.179265786257,
      "eccentricity": 0.00036885,
      "inclination_deg": 69.9986,
      "raan_deg": 102.2564,
      "arg_perigee_deg": 268.1025,
      "mean_anomaly_deg": 91.9712,
      "mean_motion_rev_day": 14.98334406
    },
    {
      "epoch": "2026-04-04T09:42:39.407328Z",
      "apogee_km": 574.5867165819209,
      "perigee_km": 569.5618528273053,
      "latitude_deg": 2.1919802893461336e-05,
      "longitude_deg": 121.34205007208607,
      "height_km": 574.5069656211296,
      "semi_major_axis_km": 6950.211284704613,
      "eccentricity": 0.00036149,
      "inclination_deg": 69.9987,
      "raan_deg": 99.7313,
      "arg_perigee_deg": 269.8918,
      "mean_anomaly_deg": 90.1827,
      "mean_motion_rev_day": 14.98324052
    },
    {
      "epoch": "2026-04-05T09:44:40.382880Z",
      "apogee_km": 574.6309764075377,
      "perigee_km": 569.4979746098161,
      "latitude_deg": 4.7180230979616626e-06,
      "longitude_deg": 117.32655269480365,
      "height_km": 574.4336419609197,
      "semi_major_axis_km": 6950.201475508677,
      "eccentricity": 0.00036927,
      "inclination_deg": 69.9986,
      "raan_deg": 97.2069,
      "arg_perigee_deg": 271.3134,
      "mean_anomaly_deg": 88.7602,
      "mean_motion_rev_day": 14.98327224
    },
    {
      "epoch": "2026-04-05T17:45:20.703744Z",
      "apogee_km": 574.6753558629371,
      "perigee_km": 569.4640908617603,
      "latitude_deg": 4.5538740072927024e-05,
      "longitude_deg": -4.012745028618371,
      "height_km": 574.4328446605953,
      "semi_major_axis_km": 6950.206723362348,
      "eccentricity": 0.0003749,
      "inclination_deg": 69.9986,
      "raan_deg": 96.3646,
      "arg_perigee_deg": 271.4276,
      "mean_anomaly_deg": 88.6454,
      "mean_motion_rev_day": 14.98325527
    },
    {
      "epoch": "2026-04-06T04:58:17.248512Z",
      "apogee_km": 574.6734052966349,
      "perigee_km": 569.4724242132252,
      "latitude_deg": -2.9900454129380614e-05,
      "longitude_deg": -173.88728923280104,
      "height_km": 574.4503380306244,
      "semi_major_axis_km": 6950.20991475493,
      "eccentricity": 0.00037416,
      "inclination_deg": 69.9985,
      "raan_deg": 95.1863,
      "arg_perigee_deg": 271.1151,
      "mean_anomaly_deg": 88.9579,
      "mean_motion_rev_day": 14.98324495
    },
    {
      "epoch": "2026-04-07T14:00:01.999872Z",
      "apogee_km": 574.5196707132909,
      "perigee_km": 569.3934207158418,
      "latitude_deg": -38.49200775060683,
      "longitude_deg": -117.42138036282138,
      "height_km": 584.4602804273943,
      "semi_major_axis_km": 6950.093545714566,
      "eccentricity": 0.00036879,
      "inclination_deg": 70.0002,
      "raan_deg": 91.7158,
      "arg_perigee_deg": 272.9289,
      "mean_anomaly_deg": 308.304,
      "mean_motion_rev_day": 14.98362126
    },
    {
      "epoch": "2026-04-07T16:13:14.392992Z",
      "apogee_km": 574.6355168953078,
      "perigee_km": 569.4659672527532,
      "latitude_deg": 9.301012651677453e-06,
      "longitude_deg": 12.223585525662365,
      "height_km": 574.4318876044501,
      "semi_major_axis_km": 6950.18774207403,
      "eccentricity": 0.0003719,
      "inclination_deg": 69.9988,
      "raan_deg": 91.4829,
      "arg_perigee_deg": 271.0395,
      "mean_anomaly_deg": 89.0338,
      "mean_motion_rev_day": 14.98331665
    }
  ]
}